{"type": "FeatureCollection", "features": [{"type": "Feature", "properties": {"code_circonscription": "01", "nom": "1e circonscription du Val-d'Oise", "nb_communes": 83, "inscrits_2022_t1": 82122}, "geometry": {"type": "Polygon", "coordinates": [[[1.81472, 49.07543], [1.81056, 49.07301], [1.80638, 49.07313], [1.80371, 49.07389], [1.79655, 49.07223], [1.79984, 49.06456], [1.79511, 49.06335], [1.79648, 49.06203], [1.79223, 49.06066], [1.7943, 49.05819], [1.79083, 49.05751], [1.78938, 49.05786], [1.78603, 49.05789], [1.78452, 49.0568], [1.77777, 49.05658], [1.7761, 49.05748], [1.77386, 49.05701], [1.77071, 49.05781], [1.76721, 49.0581], [1.76554, 49.05985], [1.76425, 49.05958], [1.7601, 49.06342], [1.75942, 49.06328], [1.75317, 49.05983], [1.75728, 49.05837], [1.75266, 49.05601], [1.75002, 49.05352], [1.75118, 49.04823], [1.74803, 49.04862], [1.74585, 49.0477], [1.73564, 49.04868], [1.73207, 49.05042], [1.72346, 49.04498], [1.71676, 49.04912], [1.71391, 49.04757], [1.70815, 49.05212], [1.7055, 49.05248], [1.70099, 49.05377], [1.69367, 49.05668], [1.69629, 49.06066], [1.69637, 49.06342], [1.6972, 49.06474], [1.69662, 49.0665], [1.69111, 49.07033], [1.68759, 49.07185], [1.68517, 49.07277], [1.67974, 49.07585], [1.67685, 49.0766], [1.67265, 49.0786], [1.66976, 49.07917], [1.66676, 49.07893], [1.66264, 49.07979], [1.65927, 49.08135], [1.65132, 49.08184], [1.64838, 49.08111], [1.6466, 49.08132], [1.64415, 49.08139], [1.64114, 49.08079], [1.64043, 49.07894], [1.63308, 49.07913], [1.62926, 49.07829], [1.62015, 49.07392], [1.6143, 49.07118], [1.61229, 49.07329], [1.6098, 49.0748], [1.61075, 49.07548], [1.6088, 49.07789], [1.61226, 49.07998], [1.61328, 49.08008], [1.61524, 49.08202], [1.62332, 49.08608], [1.61913, 49.08776], [1.61891, 49.08866], [1.62319, 49.09088], [1.62309, 49.09341], [1.61754, 49.09399], [1.61858, 49.09698], [1.62084, 49.09757], [1.62202, 49.10104], [1.62754, 49.10306], [1.62703, 49.10513], [1.6296, 49.10752], [1.62956, 49.10995], [1.63311, 49.11105], [1.63275, 49.1124], [1.63452, 49.11313], [1.63505, 49.1143], [1.64008, 49.11685], [1.64172, 49.11645], [1.64457, 49.11845], [1.64557, 49.12075], [1.64666, 49.12138], [1.64648, 49.12399], [1.64975, 49.12527], [1.65035, 49.12721], [1.6528, 49.12817], [1.65278, 49.12952], [1.65599, 49.13039], [1.65768, 49.13188], [1.65734, 49.13585], [1.65657, 49.13768], [1.65403, 49.13664], [1.65295, 49.13824], [1.65322, 49.13991], [1.65306, 49.14463], [1.6561, 49.14748], [1.65622, 49.14846], [1.65835, 49.14893], [1.65934, 49.15141], [1.66255, 49.15241], [1.6643, 49.15395], [1.66078, 49.15676], [1.66097, 49.1578], [1.66293, 49.15935], [1.66412, 49.16264], [1.66468, 49.16587], [1.6702, 49.16946], [1.66881, 49.17116], [1.66829, 49.17313], [1.66642, 49.17519], [1.66639, 49.17685], [1.66769, 49.17754], [1.66753, 49.17951], [1.67182, 49.18088], [1.67076, 49.18403], [1.66951, 49.18505], [1.66907, 49.18667], [1.67054, 49.18991], [1.67135, 49.191], [1.6707, 49.19333], [1.6745, 49.19624], [1.6765, 49.20016], [1.67688, 49.20318], [1.67321, 49.20563], [1.67222, 49.20647], [1.67426, 49.20856], [1.67491, 49.21148], [1.67689, 49.21167], [1.67742, 49.21329], [1.68016, 49.21425], [1.68248, 49.21611], [1.6846, 49.21635], [1.68601, 49.21802], [1.6889, 49.21835], [1.68881, 49.21916], [1.69126, 49.22092], [1.69083, 49.2225], [1.69164, 49.22345], [1.69863, 49.22452], [1.69881, 49.226], [1.70215, 49.22759], [1.70407, 49.22932], [1.70266, 49.2312], [1.70436, 49.2322], [1.70515, 49.23427], [1.70727, 49.2355], [1.70885, 49.2355], [1.71006, 49.23907], [1.7094, 49.24131], [1.71264, 49.24119], [1.71238, 49.2389], [1.71323, 49.23742], [1.71319, 49.23506], [1.71211, 49.23302], [1.71534, 49.23325], [1.72149, 49.23098], [1.72479, 49.23001], [1.72966, 49.2292], [1.73214, 49.22812], [1.73329, 49.22654], [1.73621, 49.22627], [1.73852, 49.2241], [1.74045, 49.22344], [1.73511, 49.22194], [1.73411, 49.22128], [1.73546, 49.21595], [1.73224, 49.2156], [1.73369, 49.21096], [1.72989, 49.21028], [1.72895, 49.20957], [1.72304, 49.20968], [1.72198, 49.21001], [1.72012, 49.20679], [1.71477, 49.20734], [1.71591, 49.20474], [1.71555, 49.20266], [1.7184, 49.20279], [1.71992, 49.20154], [1.72208, 49.2025], [1.72253, 49.20097], [1.72505, 49.20078], [1.72586, 49.19433], [1.72914, 49.19522], [1.73211, 49.19519], [1.73744, 49.1946], [1.73649, 49.19282], [1.73989, 49.19207], [1.74109, 49.18837], [1.74125, 49.18554], [1.74464, 49.18318], [1.74083, 49.18073], [1.74269, 49.17979], [1.754, 49.17508], [1.75551, 49.17459], [1.77592, 49.1837], [1.77638, 49.18508], [1.77692, 49.18523], [1.77755, 49.18411], [1.78091, 49.18426], [1.78481, 49.18583], [1.7867, 49.18416], [1.78637, 49.18308], [1.78863, 49.18146], [1.78979, 49.18165], [1.79099, 49.17986], [1.79358, 49.18027], [1.79433, 49.18041], [1.79368, 49.18364], [1.79547, 49.18526], [1.79702, 49.18523], [1.80258, 49.18493], [1.80355, 49.17996], [1.80637, 49.18013], [1.81384, 49.17802], [1.81461, 49.17596], [1.81134, 49.17464], [1.81169, 49.17361], [1.81401, 49.17326], [1.81609, 49.17386], [1.81567, 49.17484], [1.81955, 49.17598], [1.8194, 49.17693], [1.82179, 49.17801], [1.82691, 49.17961], [1.82796, 49.17804], [1.83197, 49.17599], [1.8343, 49.17564], [1.83493, 49.17421], [1.83748, 49.17318], [1.83709, 49.1717], [1.83546, 49.16954], [1.83487, 49.16606], [1.83407, 49.16512], [1.83647, 49.16454], [1.83817, 49.1663], [1.84449, 49.17043], [1.84555, 49.1699], [1.84907, 49.17049], [1.85503, 49.17199], [1.85663, 49.17165], [1.85822, 49.16986], [1.86711, 49.172], [1.86801, 49.17187], [1.8735, 49.1741], [1.87677, 49.17531], [1.87704, 49.17145], [1.88102, 49.16735], [1.88321, 49.16631], [1.88257, 49.16249], [1.88742, 49.16322], [1.88727, 49.16435], [1.89009, 49.16414], [1.89489, 49.16483], [1.89453, 49.16604], [1.9109, 49.1696], [1.91626, 49.17142], [1.92199, 49.17245], [1.92396, 49.17227], [1.92618, 49.17333], [1.93148, 49.17417], [1.93433, 49.17356], [1.93514, 49.17209], [1.93491, 49.17008], [1.94145, 49.17067], [1.9424, 49.16997], [1.94533, 49.17147], [1.94982, 49.17035], [1.95591, 49.17233], [1.96072, 49.17352], [1.9627, 49.17461], [1.96453, 49.17676], [1.97101, 49.18079], [1.97344, 49.1839], [1.97522, 49.18366], [1.98239, 49.18145], [1.98399, 49.17966], [1.98831, 49.17887], [1.99039, 49.17667], [1.99259, 49.17636], [1.99499, 49.17691], [1.99912, 49.17541], [2.00184, 49.17594], [2.02178, 49.18868], [2.02487, 49.18882], [2.02818, 49.18797], [2.03217, 49.18871], [2.03356, 49.18811], [2.03564, 49.19029], [2.03824, 49.19214], [2.03837, 49.19241], [2.04282, 49.19438], [2.04629, 49.19642], [2.04753, 49.19859], [2.05397, 49.19897], [2.05877, 49.19997], [2.06684, 49.20286], [2.07199, 49.20413], [2.07261, 49.20609], [2.07491, 49.20869], [2.07725, 49.20851], [2.07745, 49.20968], [2.08089, 49.21045], [2.08055, 49.20847], [2.08117, 49.20681], [2.08283, 49.20569], [2.08597, 49.20628], [2.08816, 49.20898], [2.09117, 49.20854], [2.09064, 49.20606], [2.0916, 49.20513], [2.09073, 49.2017], [2.09224, 49.20121], [2.0902, 49.19833], [2.09219, 49.19771], [2.09255, 49.19564], [2.08946, 49.19604], [2.08946, 49.19366], [2.09257, 49.19411], [2.09621, 49.19133], [2.09587, 49.19006], [2.09771, 49.18917], [2.10205, 49.19044], [2.10362, 49.18892], [2.10966, 49.19073], [2.10958, 49.18895], [2.11104, 49.18699], [2.11334, 49.18654], [2.11789, 49.18746], [2.12207, 49.18872], [2.12598, 49.19126], [2.12551, 49.19242], [2.1281, 49.19341], [2.13057, 49.19243], [2.13185, 49.19066], [2.13521, 49.19118], [2.13515, 49.1883], [2.13728, 49.18049], [2.13695, 49.17905], [2.14076, 49.17892], [2.14118, 49.18134], [2.14056, 49.18574], [2.14705, 49.1881], [2.14829, 49.18485], [2.15238, 49.18382], [2.15572, 49.18249], [2.15812, 49.18214], [2.16149, 49.17958], [2.16457, 49.17967], [2.16499, 49.17846], [2.16157, 49.17571], [2.16048, 49.17418], [2.15774, 49.17251], [2.16204, 49.16868], [2.16393, 49.16609], [2.16793, 49.1648], [2.16879, 49.16395], [2.17113, 49.16496], [2.17059, 49.16606], [2.17124, 49.16769], [2.17511, 49.16947], [2.17937, 49.17066], [2.18225, 49.17038], [2.17983, 49.17321], [2.17802, 49.17428], [2.17495, 49.17501], [2.1761, 49.17603], [2.18195, 49.17368], [2.18245, 49.17442], [2.18737, 49.17322], [2.1924, 49.17362], [2.19552, 49.17318], [2.19905, 49.17529], [2.20124, 49.17417], [2.20496, 49.17432], [2.20968, 49.17553], [2.21705, 49.17933], [2.21865, 49.18068], [2.22028, 49.1792], [2.22392, 49.17395], [2.22632, 49.17251], [2.23077, 49.1708], [2.23541, 49.16703], [2.23436, 49.166], [2.22627, 49.1627], [2.22456, 49.1623], [2.22258, 49.15933], [2.21636, 49.15438], [2.22034, 49.15254], [2.22301, 49.15187], [2.22958, 49.15129], [2.23877, 49.15184], [2.24158, 49.15157], [2.24187, 49.15342], [2.24994, 49.15347], [2.25378, 49.15261], [2.25871, 49.15563], [2.26221, 49.1583], [2.26812, 49.15571], [2.27146, 49.15743], [2.27701, 49.15892], [2.28107, 49.15896], [2.2827, 49.15956], [2.28641, 49.15992], [2.2852, 49.16319], [2.28509, 49.16571], [2.28756, 49.16589], [2.28697, 49.16717], [2.2895, 49.16803], [2.2888, 49.17071], [2.29019, 49.17154], [2.29421, 49.17161], [2.29572, 49.17323], [2.29675, 49.17619], [2.29943, 49.17584], [2.30004, 49.18155], [2.3012, 49.18389], [2.30449, 49.18393], [2.30629, 49.18475], [2.31059, 49.18488], [2.31093, 49.18641], [2.31334, 49.18577], [2.31876, 49.18524], [2.32178, 49.18443], [2.31965, 49.18232], [2.32595, 49.17782], [2.33611, 49.17027], [2.34105, 49.16505], [2.34626, 49.16182], [2.34907, 49.15912], [2.35383, 49.15398], [2.35545, 49.15329], [2.3549, 49.15183], [2.35348, 49.15117], [2.35598, 49.14869], [2.35771, 49.14851], [2.3593, 49.14735], [2.35476, 49.14522], [2.35297, 49.14486], [2.34941, 49.14508], [2.342, 49.14635], [2.33858, 49.14567], [2.33331, 49.14306], [2.32954, 49.1419], [2.32671, 49.14261], [2.32274, 49.14657], [2.31953, 49.14393], [2.3176, 49.14413], [2.31651, 49.1432], [2.31438, 49.14312], [2.31317, 49.14074], [2.31491, 49.1408], [2.31599, 49.13772], [2.3157, 49.13466], [2.31823, 49.1317], [2.31596, 49.12961], [2.32008, 49.12467], [2.31358, 49.12278], [2.30577, 49.12036], [2.29488, 49.12241], [2.29274, 49.12224], [2.28946, 49.12273], [2.28541, 49.12529], [2.28281, 49.12435], [2.28234, 49.12659], [2.27946, 49.12569], [2.27486, 49.12465], [2.27055, 49.12411], [2.2645, 49.1249], [2.26236, 49.12416], [2.25986, 49.12366], [2.25605, 49.12541], [2.25223, 49.12647], [2.24907, 49.12608], [2.24476, 49.12926], [2.23628, 49.12913], [2.23504, 49.13034], [2.23191, 49.12935], [2.22869, 49.12912], [2.22066, 49.12713], [2.21745, 49.12417], [2.2129, 49.1258], [2.21471, 49.12663], [2.21535, 49.12897], [2.21323, 49.12973], [2.21148, 49.1336], [2.21209, 49.13576], [2.21145, 49.13751], [2.21232, 49.13991], [2.21184, 49.14305], [2.21068, 49.14475], [2.20869, 49.14596], [2.20292, 49.1518], [2.19846, 49.15661], [2.19262, 49.15575], [2.19768, 49.14352], [2.19052, 49.14225], [2.18959, 49.1391], [2.18987, 49.13695], [2.19078, 49.13537], [2.19302, 49.13469], [2.19131, 49.13289], [2.19392, 49.1312], [2.19263, 49.12993], [2.19383, 49.12873], [2.19222, 49.12725], [2.19572, 49.12578], [2.19421, 49.12439], [2.19756, 49.12195], [2.1963, 49.12131], [2.19706, 49.11954], [2.19939, 49.11812], [2.19604, 49.11528], [2.19469, 49.11571], [2.18909, 49.11336], [2.1862, 49.11249], [2.18507, 49.11074], [2.18109, 49.1084], [2.18366, 49.10699], [2.18606, 49.10699], [2.18675, 49.10304], [2.189, 49.1043], [2.18861, 49.10151], [2.19054, 49.10075], [2.19238, 49.09918], [2.19698, 49.09617], [2.19859, 49.0945], [2.20032, 49.09483], [2.20331, 49.09438], [2.2044, 49.09331], [2.20746, 49.09394], [2.20897, 49.09362], [2.20823, 49.09106], [2.20605, 49.08683], [2.20214, 49.08237], [2.2001, 49.07927], [2.19704, 49.07626], [2.19315, 49.07386], [2.1889, 49.07215], [2.17858, 49.06997], [2.1699, 49.06462], [2.1682, 49.06421], [2.16279, 49.06475], [2.15806, 49.06482], [2.15028, 49.06655], [2.14522, 49.06701], [2.14157, 49.06645], [2.13917, 49.06641], [2.13451, 49.06726], [2.13247, 49.06689], [2.1287, 49.06459], [2.127, 49.064], [2.12563, 49.06346], [2.11915, 49.05968], [2.11548, 49.05602], [2.10763, 49.05034], [2.10516, 49.04953], [2.10121, 49.04719], [2.09851, 49.04295], [2.09831, 49.03922], [2.09641, 49.03746], [2.09579, 49.03607], [2.09249, 49.02882], [2.09167, 49.02536], [2.09066, 49.02397], [2.08964, 49.02432], [2.09112, 49.02733], [2.08962, 49.0285], [2.08455, 49.02907], [2.08418, 49.0324], [2.08534, 49.0333], [2.08295, 49.03473], [2.08732, 49.0383], [2.08058, 49.04157], [2.07511, 49.04502], [2.07222, 49.04716], [2.07488, 49.04758], [2.07664, 49.05028], [2.07852, 49.0521], [2.07642, 49.05347], [2.078, 49.05482], [2.08146, 49.05635], [2.08187, 49.05776], [2.08378, 49.05978], [2.08542, 49.06051], [2.09024, 49.06555], [2.09543, 49.06978], [2.09453, 49.07064], [2.09041, 49.07221], [2.08678, 49.07431], [2.08691, 49.0771], [2.08567, 49.07813], [2.08642, 49.07984], [2.08633, 49.08177], [2.08414, 49.0842], [2.07838, 49.08487], [2.073, 49.07878], [2.06723, 49.08376], [2.06372, 49.08632], [2.0618, 49.08626], [2.0547, 49.08484], [2.0467, 49.08366], [2.04559, 49.08298], [2.04388, 49.0832], [2.04544, 49.08635], [2.04712, 49.0913], [2.04582, 49.09162], [2.04608, 49.09328], [2.04135, 49.09494], [2.04299, 49.09593], [2.04366, 49.0975], [2.03955, 49.09928], [2.03948, 49.10005], [2.03316, 49.10134], [2.03276, 49.09909], [2.03037, 49.09805], [2.02866, 49.09836], [2.02689, 49.09651], [2.028, 49.09602], [2.02437, 49.09363], [2.02494, 49.09278], [2.01962, 49.0892], [2.02018, 49.08817], [2.01658, 49.08143], [2.01586, 49.07738], [2.01504, 49.07746], [2.01308, 49.07422], [2.01282, 49.07044], [2.01366, 49.0695], [2.01067, 49.06563], [2.00895, 49.0658], [2.00534, 49.06507], [1.99887, 49.06757], [1.99474, 49.06342], [1.99277, 49.06126], [1.99434, 49.06071], [1.99158, 49.05477], [1.98772, 49.05027], [1.98605, 49.04383], [1.98436, 49.03988], [1.98513, 49.03924], [1.98364, 49.03456], [1.98152, 49.0355], [1.97702, 49.03567], [1.97594, 49.03431], [1.97393, 49.03463], [1.96095, 49.0348], [1.96048, 49.03377], [1.9601, 49.02949], [1.95828, 49.02679], [1.95446, 49.02579], [1.95495, 49.02453], [1.9496, 49.02447], [1.94841, 49.02654], [1.94558, 49.02592], [1.94442, 49.02375], [1.9423, 49.02391], [1.9378, 49.02178], [1.93372, 49.02635], [1.93007, 49.02949], [1.92533, 49.03306], [1.92389, 49.03481], [1.92245, 49.03498], [1.91818, 49.03748], [1.91645, 49.03973], [1.91247, 49.04161], [1.91408, 49.04584], [1.90852, 49.04802], [1.90584, 49.0472], [1.90662, 49.04604], [1.90089, 49.04355], [1.90166, 49.04211], [1.89123, 49.03928], [1.89404, 49.03735], [1.89172, 49.03649], [1.88708, 49.03544], [1.88321, 49.03375], [1.88459, 49.03106], [1.88196, 49.02813], [1.8817, 49.02625], [1.8819, 49.01954], [1.87725, 49.01935], [1.87515, 49.01718], [1.87047, 49.01932], [1.86831, 49.01707], [1.86634, 49.01643], [1.86171, 49.01412], [1.85926, 49.01396], [1.8604, 49.0152], [1.86004, 49.01726], [1.86154, 49.01839], [1.86296, 49.0207], [1.86527, 49.02163], [1.86375, 49.02275], [1.85957, 49.0239], [1.85979, 49.02904], [1.859, 49.03245], [1.8551, 49.03256], [1.85133, 49.03336], [1.852, 49.0352], [1.85548, 49.03495], [1.85548, 49.03648], [1.8577, 49.04009], [1.85932, 49.04158], [1.86151, 49.04963], [1.86547, 49.05747], [1.86223, 49.05903], [1.85831, 49.05991], [1.85468, 49.06205], [1.85213, 49.06272], [1.85078, 49.06209], [1.84886, 49.06248], [1.84689, 49.06113], [1.8451, 49.06197], [1.84447, 49.06318], [1.84144, 49.06479], [1.84171, 49.06564], [1.84064, 49.06933], [1.83887, 49.06977], [1.83424, 49.07357], [1.83239, 49.07415], [1.82859, 49.07624], [1.8236, 49.07667], [1.81539, 49.07641], [1.81472, 49.07543]]]}}, {"type": "Feature", "properties": {"code_circonscription": "02", "nom": "2e circonscription du Val-d'Oise", "nb_communes": 20, "inscrits_2022_t1": 68869}, "geometry": {"type": "Polygon", "coordinates": [[[2.05777, 49.02279], [2.05914, 49.02474], [2.06097, 49.02546], [2.06654, 49.02134], [2.07298, 49.01839], [2.07546, 49.018], [2.0766, 49.01926], [2.08087, 49.019], [2.0855, 49.01976], [2.08847, 49.021], [2.09066, 49.02397], [2.09167, 49.02536], [2.09249, 49.02882], [2.09579, 49.03607], [2.09641, 49.03746], [2.09831, 49.03922], [2.09851, 49.04295], [2.10121, 49.04719], [2.10516, 49.04953], [2.10763, 49.05034], [2.11548, 49.05602], [2.11915, 49.05968], [2.12563, 49.06346], [2.127, 49.064], [2.1287, 49.06459], [2.13247, 49.06689], [2.13451, 49.06726], [2.13917, 49.06641], [2.14157, 49.06645], [2.14522, 49.06701], [2.15028, 49.06655], [2.15806, 49.06482], [2.16279, 49.06475], [2.1682, 49.06421], [2.1699, 49.06462], [2.17858, 49.06997], [2.1889, 49.07215], [2.19315, 49.07386], [2.19704, 49.07626], [2.2001, 49.07927], [2.20214, 49.08237], [2.20605, 49.08683], [2.20823, 49.09106], [2.20897, 49.09362], [2.20746, 49.09394], [2.2044, 49.09331], [2.20331, 49.09438], [2.20032, 49.09483], [2.19859, 49.0945], [2.19698, 49.09617], [2.19238, 49.09918], [2.19054, 49.10075], [2.18861, 49.10151], [2.189, 49.1043], [2.18675, 49.10304], [2.18606, 49.10699], [2.18366, 49.10699], [2.18109, 49.1084], [2.18507, 49.11074], [2.1862, 49.11249], [2.18909, 49.11336], [2.19469, 49.11571], [2.19604, 49.11528], [2.19939, 49.11812], [2.19706, 49.11954], [2.1963, 49.12131], [2.19756, 49.12195], [2.19421, 49.12439], [2.19572, 49.12578], [2.19222, 49.12725], [2.19383, 49.12873], [2.19263, 49.12993], [2.19392, 49.1312], [2.19131, 49.13289], [2.19302, 49.13469], [2.19078, 49.13537], [2.18987, 49.13695], [2.18959, 49.1391], [2.19052, 49.14225], [2.19768, 49.14352], [2.19262, 49.15575], [2.19846, 49.15661], [2.20292, 49.1518], [2.20869, 49.14596], [2.21068, 49.14475], [2.21184, 49.14305], [2.21232, 49.13991], [2.21145, 49.13751], [2.21209, 49.13576], [2.21148, 49.1336], [2.21323, 49.12973], [2.21535, 49.12897], [2.21471, 49.12663], [2.2129, 49.1258], [2.21745, 49.12417], [2.22066, 49.12713], [2.22869, 49.12912], [2.23191, 49.12935], [2.23504, 49.13034], [2.23628, 49.12913], [2.24476, 49.12926], [2.24907, 49.12608], [2.25223, 49.12647], [2.25605, 49.12541], [2.25986, 49.12366], [2.26236, 49.12416], [2.2645, 49.1249], [2.27055, 49.12411], [2.27486, 49.12465], [2.27946, 49.12569], [2.28234, 49.12659], [2.28281, 49.12435], [2.28541, 49.12529], [2.28946, 49.12273], [2.29274, 49.12224], [2.29488, 49.12241], [2.30577, 49.12036], [2.31358, 49.12278], [2.32008, 49.12467], [2.31596, 49.12961], [2.31823, 49.1317], [2.3157, 49.13466], [2.31599, 49.13772], [2.31491, 49.1408], [2.31317, 49.14074], [2.31438, 49.14312], [2.31651, 49.1432], [2.3176, 49.14413], [2.31953, 49.14393], [2.32274, 49.14657], [2.32671, 49.14261], [2.32954, 49.1419], [2.33331, 49.14306], [2.33858, 49.14567], [2.342, 49.14635], [2.34941, 49.14508], [2.35297, 49.14486], [2.35476, 49.14522], [2.3593, 49.14735], [2.36079, 49.14873], [2.3621, 49.15098], [2.36223, 49.15255], [2.36485, 49.1523], [2.36657, 49.15399], [2.36709, 49.15583], [2.37023, 49.15677], [2.37125, 49.15931], [2.37316, 49.15933], [2.37637, 49.15904], [2.38045, 49.15804], [2.38937, 49.15065], [2.39129, 49.14935], [2.39746, 49.15011], [2.40542, 49.15194], [2.4131, 49.15235], [2.41536, 49.15176], [2.41535, 49.14993], [2.41952, 49.14942], [2.42542, 49.14945], [2.43105, 49.14846], [2.43721, 49.14657], [2.4409, 49.1458], [2.43891, 49.1415], [2.42837, 49.14173], [2.42602, 49.13966], [2.4208, 49.13426], [2.41656, 49.13526], [2.4139, 49.1353], [2.41204, 49.13594], [2.41128, 49.13409], [2.41253, 49.1331], [2.41107, 49.13117], [2.41059, 49.12906], [2.40784, 49.12631], [2.40312, 49.12326], [2.39962, 49.12142], [2.39886, 49.1203], [2.40187, 49.1194], [2.40188, 49.11791], [2.39988, 49.11625], [2.39647, 49.11634], [2.39604, 49.11566], [2.39535, 49.11341], [2.39165, 49.11036], [2.38954, 49.10847], [2.38851, 49.10623], [2.39103, 49.10294], [2.3913, 49.10074], [2.39356, 49.09809], [2.39041, 49.09567], [2.38897, 49.09364], [2.38794, 49.09049], [2.39172, 49.09073], [2.39065, 49.08908], [2.39642, 49.08649], [2.38458, 49.08037], [2.38066, 49.07849], [2.37539, 49.07516], [2.37553, 49.0718], [2.3704, 49.0727], [2.36725, 49.06829], [2.36466, 49.06884], [2.35392, 49.06976], [2.34631, 49.07404], [2.34407, 49.07447], [2.34183, 49.07404], [2.34152, 49.07611], [2.33864, 49.07661], [2.33461, 49.0753], [2.33543, 49.07148], [2.33358, 49.06753], [2.3288, 49.06622], [2.33003, 49.06366], [2.33085, 49.06213], [2.33529, 49.05148], [2.33544, 49.05043], [2.33372, 49.04941], [2.33119, 49.05071], [2.32811, 49.0517], [2.32455, 49.05156], [2.32195, 49.05075], [2.31737, 49.04954], [2.31218, 49.04922], [2.30827, 49.04765], [2.30444, 49.04693], [2.30096, 49.04841], [2.30007, 49.05034], [2.29281, 49.04774], [2.2902, 49.04639], [2.28658, 49.05007], [2.28501, 49.04913], [2.28412, 49.04993], [2.2807, 49.04912], [2.2792, 49.05303], [2.27905, 49.05978], [2.27974, 49.06212], [2.2811, 49.06382], [2.2813, 49.06571], [2.27275, 49.06404], [2.27171, 49.06571], [2.27343, 49.06612], [2.27419, 49.06876], [2.27192, 49.06943], [2.27048, 49.06863], [2.26884, 49.06656], [2.2659, 49.06714], [2.26563, 49.06934], [2.26344, 49.07303], [2.25679, 49.07546], [2.25556, 49.07375], [2.25693, 49.07253], [2.25536, 49.07074], [2.25166, 49.07046], [2.25097, 49.06897], [2.25263, 49.06623], [2.24859, 49.06318], [2.24778, 49.06062], [2.246, 49.05876], [2.24225, 49.05655], [2.2391, 49.05624], [2.24089, 49.05319], [2.23615, 49.05215], [2.23466, 49.05147], [2.23487, 49.04937], [2.23308, 49.05102], [2.2313, 49.05179], [2.22795, 49.0529], [2.22617, 49.05282], [2.2216, 49.05402], [2.21907, 49.0538], [2.21721, 49.05487], [2.21549, 49.05681], [2.21261, 49.05904], [2.20954, 49.05801], [2.20735, 49.05949], [2.20666, 49.06102], [2.20406, 49.06106], [2.2029, 49.06083], [2.20215, 49.05872], [2.2021, 49.05517], [2.19709, 49.05238], [2.196, 49.05112], [2.19199, 49.04909], [2.18631, 49.04696], [2.17619, 49.04633], [2.17489, 49.04543], [2.17517, 49.04399], [2.17381, 49.03994], [2.17389, 49.03877], [2.17055, 49.03624], [2.16892, 49.03381], [2.16831, 49.03162], [2.15885, 49.03542], [2.15578, 49.03631], [2.15434, 49.03523], [2.14635, 49.03122], [2.13523, 49.02692], [2.12868, 49.02287], [2.12563, 49.02568], [2.12239, 49.02934], [2.11608, 49.02462], [2.11606, 49.02317], [2.11703, 49.02192], [2.11903, 49.02149], [2.12078, 49.01943], [2.12099, 49.0181], [2.11287, 49.01191], [2.11062, 49.01038], [2.11024, 49.00873], [2.10539, 49.00956], [2.0988, 49.01101], [2.08491, 49.01468], [2.08322, 49.01103], [2.08172, 49.00896], [2.07893, 49.00756], [2.07489, 49.00644], [2.07546, 49.00226], [2.07169, 49.00171], [2.06854, 49.00548], [2.06443, 49.00821], [2.0568, 49.01371], [2.0492, 49.01816], [2.0448, 49.02174], [2.04288, 49.02281], [2.04059, 49.02568], [2.03634, 49.03031], [2.0366, 49.03188], [2.03823, 49.03373], [2.04982, 49.02878], [2.05011, 49.02669], [2.05615, 49.02319], [2.05777, 49.02279]]]}}, {"type": "Feature", "properties": {"code_circonscription": "03", "nom": "3e circonscription du Val-d'Oise", "nb_communes": 12, "inscrits_2022_t1": 93965}, "geometry": {"type": "Polygon", "coordinates": [[[2.17685, 48.96903], [2.17555, 48.97092], [2.17554, 48.9724], [2.17328, 48.97564], [2.16938, 48.9786], [2.16635, 48.98148], [2.15931, 48.98425], [2.15493, 48.98572], [2.14694, 48.98675], [2.14201, 48.98804], [2.13183, 48.98861], [2.12745, 48.98905], [2.12368, 48.99152], [2.12401, 48.9936], [2.12081, 48.99417], [2.12354, 49.00366], [2.12712, 49.00968], [2.12667, 49.01221], [2.12099, 49.0181], [2.12078, 49.01943], [2.11903, 49.02149], [2.11703, 49.02192], [2.11606, 49.02317], [2.11608, 49.02462], [2.12239, 49.02934], [2.12563, 49.02568], [2.12868, 49.02287], [2.13523, 49.02692], [2.14635, 49.03122], [2.15434, 49.03523], [2.15578, 49.03631], [2.15885, 49.03542], [2.16831, 49.03162], [2.16892, 49.03381], [2.17055, 49.03624], [2.17389, 49.03877], [2.17381, 49.03994], [2.17517, 49.04399], [2.17489, 49.04543], [2.17619, 49.04633], [2.18631, 49.04696], [2.19199, 49.04909], [2.196, 49.05112], [2.19709, 49.05238], [2.2021, 49.05517], [2.20215, 49.05872], [2.2029, 49.06083], [2.20406, 49.06106], [2.20666, 49.06102], [2.20735, 49.05949], [2.20954, 49.05801], [2.21261, 49.05904], [2.21549, 49.05681], [2.21721, 49.05487], [2.21907, 49.0538], [2.2216, 49.05402], [2.22617, 49.05282], [2.22795, 49.0529], [2.2313, 49.05179], [2.23308, 49.05102], [2.23487, 49.04937], [2.23466, 49.05147], [2.23615, 49.05215], [2.24089, 49.05319], [2.2391, 49.05624], [2.24225, 49.05655], [2.246, 49.05876], [2.24778, 49.06062], [2.24859, 49.06318], [2.25263, 49.06623], [2.25097, 49.06897], [2.25166, 49.07046], [2.25536, 49.07074], [2.25693, 49.07253], [2.25556, 49.07375], [2.25679, 49.07546], [2.26344, 49.07303], [2.26563, 49.06934], [2.2659, 49.06714], [2.26884, 49.06656], [2.27048, 49.06863], [2.27192, 49.06943], [2.27419, 49.06876], [2.27343, 49.06612], [2.27171, 49.06571], [2.27275, 49.06404], [2.2813, 49.06571], [2.2811, 49.06382], [2.27974, 49.06212], [2.27905, 49.05978], [2.2792, 49.05303], [2.2807, 49.04912], [2.28412, 49.04993], [2.28501, 49.04913], [2.28468, 49.04643], [2.28085, 49.04355], [2.27668, 49.04183], [2.27531, 49.03931], [2.27478, 49.03644], [2.26785, 49.03855], [2.26368, 49.0386], [2.25827, 49.04001], [2.25315, 49.04142], [2.25164, 49.03953], [2.25301, 49.03593], [2.24488, 49.03822], [2.24407, 49.03575], [2.24271, 49.02945], [2.24033, 49.02387], [2.23747, 49.02148], [2.23528, 49.01847], [2.23125, 49.01487], [2.22762, 49.01321], [2.22646, 49.01388], [2.22394, 49.01181], [2.22681, 49.01095], [2.24281, 49.00755], [2.24446, 49.00679], [2.24639, 49.00382], [2.25036, 49.00068], [2.24871, 48.99942], [2.24352, 48.99433], [2.23874, 48.99599], [2.22848, 48.99895], [2.22533, 49.0003], [2.21713, 49.0029], [2.21495, 49.00348], [2.21324, 49.00172], [2.2092, 48.99726], [2.20819, 48.99398], [2.20568, 48.99088], [2.20425, 48.99003], [2.20412, 48.98633], [2.20331, 48.98422], [2.21316, 48.9818], [2.21889, 48.97934], [2.21903, 48.97615], [2.22014, 48.97556], [2.22388, 48.9753], [2.22875, 48.97288], [2.22574, 48.97102], [2.22285, 48.97247], [2.2204, 48.97002], [2.2185, 48.96901], [2.2166, 48.96661], [2.21354, 48.96369], [2.21147, 48.96473], [2.20979, 48.96345], [2.20345, 48.95639], [2.20537, 48.95495], [2.20586, 48.94974], [2.20141, 48.95022], [2.20032, 48.94964], [2.19316, 48.95045], [2.18975, 48.9504], [2.19015, 48.95178], [2.17792, 48.95438], [2.17574, 48.95199], [2.17314, 48.9533], [2.17511, 48.95473], [2.17689, 48.95707], [2.17811, 48.95977], [2.17816, 48.96351], [2.17925, 48.9658], [2.17706, 48.96737], [2.17685, 48.96903]]]}}, {"type": "Feature", "properties": {"code_circonscription": "04", "nom": "4e circonscription du Val-d'Oise", "nb_communes": 6, "inscrits_2022_t1": 75211}, "geometry": {"type": "Polygon", "coordinates": [[[2.22533, 49.0003], [2.22848, 48.99895], [2.23874, 48.99599], [2.24352, 48.99433], [2.24871, 48.99942], [2.25036, 49.00068], [2.24639, 49.00382], [2.24446, 49.00679], [2.24281, 49.00755], [2.22681, 49.01095], [2.22394, 49.01181], [2.22646, 49.01388], [2.22762, 49.01321], [2.23125, 49.01487], [2.23528, 49.01847], [2.23747, 49.02148], [2.24033, 49.02387], [2.24271, 49.02945], [2.24407, 49.03575], [2.24488, 49.03822], [2.25301, 49.03593], [2.25164, 49.03953], [2.25315, 49.04142], [2.25827, 49.04001], [2.26368, 49.0386], [2.26785, 49.03855], [2.27478, 49.03644], [2.28516, 49.03307], [2.2944, 49.03024], [2.29748, 49.02849], [2.29557, 49.02678], [2.30138, 49.02378], [2.30247, 49.02225], [2.30255, 49.02044], [2.3005, 49.0186], [2.30138, 49.01581], [2.29994, 49.01482], [2.29776, 49.0115], [2.29545, 49.01055], [2.29183, 49.00632], [2.28992, 49.00645], [2.28499, 49.00317], [2.28314, 49.00294], [2.28386, 49.00155], [2.28309, 48.99967], [2.2811, 48.99818], [2.28459, 48.99747], [2.28759, 48.99733], [2.29034, 48.9967], [2.29286, 48.99584], [2.29088, 48.99283], [2.28782, 48.98914], [2.28426, 48.98555], [2.28705, 48.98208], [2.2917, 48.97897], [2.29186, 48.97624], [2.28981, 48.977], [2.28426, 48.97737], [2.27594, 48.97579], [2.27385, 48.97678], [2.27342, 48.97671], [2.27047, 48.97716], [2.2663, 48.97623], [2.26356, 48.97658], [2.25797, 48.9787], [2.25401, 48.97849], [2.24547, 48.97997], [2.2463, 48.98114], [2.24339, 48.9816], [2.24238, 48.9836], [2.23638, 48.98407], [2.23522, 48.9802], [2.23724, 48.979], [2.23639, 48.97594], [2.23646, 48.97387], [2.23298, 48.97351], [2.2293, 48.97229], [2.22875, 48.97288], [2.22388, 48.9753], [2.22014, 48.97556], [2.21903, 48.97615], [2.21889, 48.97934], [2.21316, 48.9818], [2.20331, 48.98422], [2.20412, 48.98633], [2.20425, 48.99003], [2.20568, 48.99088], [2.20819, 48.99398], [2.2092, 48.99726], [2.21324, 49.00172], [2.21495, 49.00348], [2.21713, 49.0029], [2.22533, 49.0003]]]}}, {"type": "Feature", "properties": {"code_circonscription": "05", "nom": "5e circonscription du Val-d'Oise", "nb_communes": 2, "inscrits_2022_t1": 68637}, "geometry": {"type": "Polygon", "coordinates": [[[2.19825, 48.912], [2.2037, 48.91439], [2.20048, 48.91825], [2.19919, 48.91897], [2.20198, 48.92073], [2.20546, 48.92213], [2.20394, 48.92505], [2.20387, 48.92784], [2.201, 48.93165], [2.19893, 48.93525], [2.20077, 48.93606], [2.20146, 48.93772], [2.20282, 48.93778], [2.20268, 48.93985], [2.20609, 48.94066], [2.20528, 48.9414], [2.20621, 48.94551], [2.20586, 48.94974], [2.20537, 48.95495], [2.20345, 48.95639], [2.20979, 48.96345], [2.21147, 48.96473], [2.21354, 48.96369], [2.2166, 48.96661], [2.2185, 48.96901], [2.2204, 48.97002], [2.22285, 48.97247], [2.22574, 48.97102], [2.2291, 48.97058], [2.23163, 48.96775], [2.23579, 48.96824], [2.24278, 48.96657], [2.24349, 48.96721], [2.24942, 48.96534], [2.24898, 48.96385], [2.25901, 48.96345], [2.2638, 48.96196], [2.26505, 48.96299], [2.26779, 48.96317], [2.26844, 48.96386], [2.27302, 48.96432], [2.27462, 48.96414], [2.27617, 48.96411], [2.2765, 48.962], [2.27897, 48.96186], [2.27986, 48.9599], [2.28271, 48.95996], [2.28312, 48.95907], [2.28812, 48.95974], [2.28846, 48.95897], [2.28825, 48.95835], [2.29228, 48.95139], [2.29097, 48.95097], [2.28171, 48.94975], [2.26872, 48.94658], [2.26084, 48.94344], [2.25776, 48.94184], [2.25559, 48.9402], [2.2476, 48.93674], [2.24177, 48.9329], [2.23672, 48.9307], [2.23114, 48.92773], [2.2204, 48.92062], [2.21501, 48.91711], [2.21163, 48.9143], [2.20615, 48.91093], [2.20059, 48.90868], [2.19825, 48.912]]]}}, {"type": "Feature", "properties": {"code_circonscription": "06", "nom": "6e circonscription du Val-d'Oise", "nb_communes": 8, "inscrits_2022_t1": 75004}, "geometry": {"type": "Polygon", "coordinates": [[[2.34803, 48.97986], [2.34985, 48.97836], [2.35435, 48.9798], [2.3565, 48.97735], [2.36426, 48.97872], [2.36616, 48.97422], [2.36528, 48.97303], [2.36149, 48.97384], [2.36022, 48.97252], [2.35872, 48.97274], [2.35644, 48.96911], [2.35693, 48.9688], [2.35346, 48.96563], [2.35142, 48.96667], [2.3441, 48.96824], [2.33967, 48.96267], [2.33753, 48.96084], [2.33799, 48.95998], [2.33331, 48.95538], [2.32922, 48.95858], [2.32834, 48.95966], [2.32511, 48.95809], [2.3228, 48.95754], [2.31918, 48.95867], [2.31318, 48.96222], [2.31037, 48.96175], [2.30894, 48.96351], [2.30497, 48.96231], [2.30156, 48.96523], [2.29862, 48.96635], [2.28982, 48.96145], [2.28846, 48.95897], [2.28812, 48.95974], [2.28312, 48.95907], [2.28271, 48.95996], [2.27986, 48.9599], [2.27897, 48.96186], [2.2765, 48.962], [2.27617, 48.96411], [2.27462, 48.96414], [2.27302, 48.96432], [2.26844, 48.96386], [2.26779, 48.96317], [2.26505, 48.96299], [2.2638, 48.96196], [2.25901, 48.96345], [2.24898, 48.96385], [2.24942, 48.96534], [2.24349, 48.96721], [2.24278, 48.96657], [2.23579, 48.96824], [2.23163, 48.96775], [2.2291, 48.97058], [2.22574, 48.97102], [2.22875, 48.97288], [2.2293, 48.97229], [2.23298, 48.97351], [2.23646, 48.97387], [2.23639, 48.97594], [2.23724, 48.979], [2.23522, 48.9802], [2.23638, 48.98407], [2.24238, 48.9836], [2.24339, 48.9816], [2.2463, 48.98114], [2.24547, 48.97997], [2.25401, 48.97849], [2.25797, 48.9787], [2.26356, 48.97658], [2.2663, 48.97623], [2.27047, 48.97716], [2.27342, 48.97671], [2.27385, 48.97678], [2.27594, 48.97579], [2.28426, 48.97737], [2.28981, 48.977], [2.29186, 48.97624], [2.2917, 48.97897], [2.28705, 48.98208], [2.28426, 48.98555], [2.28782, 48.98914], [2.29088, 48.99283], [2.29286, 48.99584], [2.29034, 48.9967], [2.28759, 48.99733], [2.28459, 48.99747], [2.2811, 48.99818], [2.28309, 48.99967], [2.28386, 49.00155], [2.28314, 49.00294], [2.28499, 49.00317], [2.28992, 49.00645], [2.29183, 49.00632], [2.29545, 49.01055], [2.29776, 49.0115], [2.29994, 49.01482], [2.30138, 49.01581], [2.3005, 49.0186], [2.30255, 49.02044], [2.30247, 49.02225], [2.30138, 49.02378], [2.30569, 49.02395], [2.30446, 49.02265], [2.30439, 49.02071], [2.31302, 49.01667], [2.31288, 49.01482], [2.31158, 49.01253], [2.31247, 49.00953], [2.31403, 49.00799], [2.31111, 49.00619], [2.31247, 49.0052], [2.31063, 49.00202], [2.3122, 49.00206], [2.31555, 49.00085], [2.31657, 48.99909], [2.31557, 48.99748], [2.31327, 48.99638], [2.31331, 48.9944], [2.31093, 48.99267], [2.31193, 48.99118], [2.31336, 48.99068], [2.31289, 48.98933], [2.30995, 48.98686], [2.30742, 48.98601], [2.30866, 48.98461], [2.3124, 48.9834], [2.31118, 48.98196], [2.30695, 48.97871], [2.30702, 48.9776], [2.30832, 48.97517], [2.31085, 48.97194], [2.31391, 48.96954], [2.31678, 48.97144], [2.31719, 48.97588], [2.31685, 48.97961], [2.31938, 48.98079], [2.32251, 48.98034], [2.32267, 48.98229], [2.32546, 48.98309], [2.33155, 48.9824], [2.33516, 48.98097], [2.33863, 48.98047], [2.34076, 48.98222], [2.34294, 48.98309], [2.34431, 48.97792], [2.34614, 48.97657], [2.34803, 48.97986]]]}}, {"type": "Feature", "properties": {"code_circonscription": "07", "nom": "7e circonscription du Val-d'Oise", "nb_communes": 12, "inscrits_2022_t1": 55813}, "geometry": {"type": "Polygon", "coordinates": [[[2.3124, 48.9834], [2.30866, 48.98461], [2.30742, 48.98601], [2.30995, 48.98686], [2.31289, 48.98933], [2.31336, 48.99068], [2.31193, 48.99118], [2.31093, 48.99267], [2.31331, 48.9944], [2.31327, 48.99638], [2.31557, 48.99748], [2.31657, 48.99909], [2.31555, 49.00085], [2.3122, 49.00206], [2.31063, 49.00202], [2.31247, 49.0052], [2.31111, 49.00619], [2.31403, 49.00799], [2.31247, 49.00953], [2.31158, 49.01253], [2.31288, 49.01482], [2.31302, 49.01667], [2.30439, 49.02071], [2.30446, 49.02265], [2.30569, 49.02395], [2.30138, 49.02378], [2.29557, 49.02678], [2.29748, 49.02849], [2.2944, 49.03024], [2.28516, 49.03307], [2.27478, 49.03644], [2.27531, 49.03931], [2.27668, 49.04183], [2.28085, 49.04355], [2.28468, 49.04643], [2.28501, 49.04913], [2.28658, 49.05007], [2.2902, 49.04639], [2.29281, 49.04774], [2.30007, 49.05034], [2.30096, 49.04841], [2.30444, 49.04693], [2.30827, 49.04765], [2.31218, 49.04922], [2.31737, 49.04954], [2.32195, 49.05075], [2.32455, 49.05156], [2.32811, 49.0517], [2.33119, 49.05071], [2.33372, 49.04941], [2.33544, 49.05043], [2.33529, 49.05148], [2.33085, 49.06213], [2.33003, 49.06366], [2.3288, 49.06622], [2.33358, 49.06753], [2.33543, 49.07148], [2.33461, 49.0753], [2.33864, 49.07661], [2.34152, 49.07611], [2.34183, 49.07404], [2.34407, 49.07447], [2.34631, 49.07404], [2.35392, 49.06976], [2.36466, 49.06884], [2.36725, 49.06829], [2.37279, 49.06532], [2.37518, 49.06351], [2.38634, 49.06836], [2.38606, 49.06634], [2.39434, 49.06867], [2.40071, 49.06499], [2.39948, 49.06373], [2.40337, 49.06058], [2.40767, 49.05644], [2.40871, 49.0572], [2.41377, 49.0572], [2.41363, 49.0563], [2.41171, 49.05321], [2.41984, 49.04736], [2.41853, 49.04645], [2.4225, 49.04178], [2.42988, 49.03777], [2.4328, 49.03548], [2.43492, 49.03434], [2.43267, 49.03268], [2.42836, 49.02802], [2.4237, 49.02924], [2.42275, 49.02694], [2.42069, 49.02541], [2.41706, 49.02829], [2.41353, 49.02585], [2.41254, 49.02405], [2.41027, 49.02399], [2.40955, 49.0242], [2.40319, 49.02024], [2.40174, 49.01962], [2.39675, 49.01612], [2.39456, 49.01643], [2.39346, 49.01414], [2.3875, 49.01401], [2.38498, 49.01339], [2.38109, 49.01424], [2.37958, 49.01347], [2.37699, 49.01262], [2.37385, 49.01262], [2.36995, 49.01186], [2.36756, 49.01245], [2.36517, 49.01123], [2.36365, 49.00956], [2.36592, 49.00592], [2.36729, 49.00147], [2.36851, 48.9994], [2.36853, 48.99716], [2.36991, 48.99507], [2.3652, 48.99314], [2.36649, 48.99187], [2.36515, 48.99086], [2.36652, 48.99005], [2.36569, 48.98884], [2.36809, 48.98789], [2.36802, 48.98408], [2.36618, 48.98092], [2.36426, 48.97872], [2.3565, 48.97735], [2.35435, 48.9798], [2.34985, 48.97836], [2.34803, 48.97986], [2.34614, 48.97657], [2.34431, 48.97792], [2.34294, 48.98309], [2.34076, 48.98222], [2.33863, 48.98047], [2.33516, 48.98097], [2.33155, 48.9824], [2.32546, 48.98309], [2.32267, 48.98229], [2.32251, 48.98034], [2.31938, 48.98079], [2.31685, 48.97961], [2.31719, 48.97588], [2.31678, 48.97144], [2.31391, 48.96954], [2.31085, 48.97194], [2.30832, 48.97517], [2.30702, 48.9776], [2.30695, 48.97871], [2.31118, 48.98196], [2.3124, 48.9834]]]}}, {"type": "Feature", "properties": {"code_circonscription": "08", "nom": "8e circonscription du Val-d'Oise", "nb_communes": 5, "inscrits_2022_t1": 67246}, "geometry": {"type": "Polygon", "coordinates": [[[2.43672, 48.97796], [2.44075, 48.97701], [2.43754, 48.97356], [2.44416, 48.97211], [2.446, 48.97017], [2.4464, 48.96766], [2.44778, 48.96518], [2.45159, 48.96338], [2.45118, 48.96262], [2.45756, 48.95988], [2.45601, 48.95577], [2.45034, 48.95492], [2.44752, 48.9558], [2.44522, 48.95682], [2.43725, 48.95581], [2.43591, 48.95518], [2.43219, 48.95768], [2.42816, 48.95904], [2.42542, 48.95922], [2.41885, 48.95775], [2.41755, 48.95951], [2.41318, 48.95772], [2.40971, 48.95793], [2.40738, 48.95612], [2.40329, 48.95802], [2.40241, 48.95793], [2.39797, 48.95989], [2.39375, 48.96342], [2.38869, 48.96676], [2.38463, 48.97013], [2.38245, 48.97128], [2.37594, 48.97202], [2.36952, 48.97314], [2.36616, 48.97422], [2.36426, 48.97872], [2.36618, 48.98092], [2.36802, 48.98408], [2.36809, 48.98789], [2.36569, 48.98884], [2.36652, 48.99005], [2.36515, 48.99086], [2.36649, 48.99187], [2.3652, 48.99314], [2.36991, 48.99507], [2.36853, 48.99716], [2.36851, 48.9994], [2.36729, 49.00147], [2.36592, 49.00592], [2.36365, 49.00956], [2.36517, 49.01123], [2.36756, 49.01245], [2.36995, 49.01186], [2.37385, 49.01262], [2.37699, 49.01262], [2.37958, 49.01347], [2.38109, 49.01424], [2.38498, 49.01339], [2.3875, 49.01401], [2.39346, 49.01414], [2.39456, 49.01643], [2.39675, 49.01612], [2.40174, 49.01962], [2.40319, 49.02024], [2.40955, 49.0242], [2.41027, 49.02399], [2.41842, 49.01965], [2.42301, 49.01861], [2.42155, 49.01578], [2.42512, 49.01398], [2.42471, 49.01309], [2.42826, 49.012], [2.42422, 49.00935], [2.42017, 49.00502], [2.4205, 49.00303], [2.4194, 49.0015], [2.419, 48.99926], [2.41654, 48.9985], [2.42059, 48.99628], [2.42213, 48.99451], [2.42179, 48.99312], [2.42311, 48.99251], [2.42585, 48.98693], [2.4272, 48.98536], [2.43063, 48.98283], [2.43229, 48.97976], [2.43672, 48.97796]]]}}, {"type": "Feature", "properties": {"code_circonscription": "09", "nom": "9e circonscription du Val-d'Oise", "nb_communes": 27, "inscrits_2022_t1": 70142}, "geometry": {"type": "Polygon", "coordinates": [[[2.42311, 48.99251], [2.42179, 48.99312], [2.42213, 48.99451], [2.42059, 48.99628], [2.41654, 48.9985], [2.419, 48.99926], [2.4194, 49.0015], [2.4205, 49.00303], [2.42017, 49.00502], [2.42422, 49.00935], [2.42826, 49.012], [2.42471, 49.01309], [2.42512, 49.01398], [2.42155, 49.01578], [2.42301, 49.01861], [2.41842, 49.01965], [2.41027, 49.02399], [2.41254, 49.02405], [2.41353, 49.02585], [2.41706, 49.02829], [2.42069, 49.02541], [2.42275, 49.02694], [2.4237, 49.02924], [2.42836, 49.02802], [2.43267, 49.03268], [2.43492, 49.03434], [2.4328, 49.03548], [2.42988, 49.03777], [2.4225, 49.04178], [2.41853, 49.04645], [2.41984, 49.04736], [2.41171, 49.05321], [2.41363, 49.0563], [2.41377, 49.0572], [2.40871, 49.0572], [2.40767, 49.05644], [2.40337, 49.06058], [2.39948, 49.06373], [2.40071, 49.06499], [2.39434, 49.06867], [2.38606, 49.06634], [2.38634, 49.06836], [2.37518, 49.06351], [2.37279, 49.06532], [2.36725, 49.06829], [2.3704, 49.0727], [2.37553, 49.0718], [2.37539, 49.07516], [2.38066, 49.07849], [2.38458, 49.08037], [2.39642, 49.08649], [2.39065, 49.08908], [2.39172, 49.09073], [2.38794, 49.09049], [2.38897, 49.09364], [2.39041, 49.09567], [2.39356, 49.09809], [2.3913, 49.10074], [2.39103, 49.10294], [2.38851, 49.10623], [2.38954, 49.10847], [2.39165, 49.11036], [2.39535, 49.11341], [2.39604, 49.11566], [2.39647, 49.11634], [2.39988, 49.11625], [2.40188, 49.11791], [2.40187, 49.1194], [2.39886, 49.1203], [2.39962, 49.12142], [2.40312, 49.12326], [2.40784, 49.12631], [2.41059, 49.12906], [2.41107, 49.13117], [2.41253, 49.1331], [2.41128, 49.13409], [2.41204, 49.13594], [2.4139, 49.1353], [2.41656, 49.13526], [2.4208, 49.13426], [2.42602, 49.13966], [2.42837, 49.14173], [2.43891, 49.1415], [2.4354, 49.13394], [2.43753, 49.13434], [2.44122, 49.13416], [2.44706, 49.13559], [2.45302, 49.13819], [2.45432, 49.13927], [2.45823, 49.14114], [2.46249, 49.13912], [2.46131, 49.13661], [2.46151, 49.13594], [2.46762, 49.13584], [2.46994, 49.13453], [2.47158, 49.13543], [2.47548, 49.13116], [2.4776, 49.13107], [2.47547, 49.12832], [2.4878, 49.12552], [2.49923, 49.12227], [2.50326, 49.11758], [2.49159, 49.11131], [2.48993, 49.10636], [2.49369, 49.10546], [2.49745, 49.10509], [2.5052, 49.10365], [2.51005, 49.10364], [2.51053, 49.10417], [2.5247, 49.10096], [2.52655, 49.10087], [2.53106, 49.0996], [2.53299, 49.11938], [2.53684, 49.12], [2.53862, 49.12166], [2.54265, 49.12206], [2.54367, 49.11972], [2.53853, 49.11861], [2.53976, 49.11645], [2.54716, 49.11621], [2.54744, 49.12026], [2.54897, 49.12196], [2.55329, 49.1246], [2.55702, 49.12382], [2.55714, 49.12171], [2.55602, 49.11762], [2.55153, 49.1126], [2.55261, 49.11107], [2.55575, 49.10904], [2.55813, 49.10378], [2.55854, 49.10184], [2.55771, 49.09996], [2.55817, 49.09839], [2.55948, 49.09762], [2.56132, 49.09694], [2.56289, 49.09748], [2.565, 49.09523], [2.56664, 49.09419], [2.56795, 49.09477], [2.57316, 49.09422], [2.57466, 49.09322], [2.57868, 49.09195], [2.5799, 49.08971], [2.57785, 49.08804], [2.57989, 49.08669], [2.57885, 49.08445], [2.58273, 49.08245], [2.58302, 49.08065], [2.58655, 49.07979], [2.59052, 49.07965], [2.59013, 49.07786], [2.5872, 49.07604], [2.5855, 49.07262], [2.58358, 49.07018], [2.5756, 49.06505], [2.57096, 49.06056], [2.57419, 49.05415], [2.58035, 49.05594], [2.58577, 49.05781], [2.58658, 49.05565], [2.58494, 49.05404], [2.58472, 49.0526], [2.58786, 49.0499], [2.59447, 49.04781], [2.59447, 49.04714], [2.58798, 49.04688], [2.58408, 49.04698], [2.57703, 49.0461], [2.56934, 49.03959], [2.56796, 49.03888], [2.56966, 49.03533], [2.56856, 49.03452], [2.56888, 49.03271], [2.56628, 49.03204], [2.56607, 49.02859], [2.55716, 49.02559], [2.55269, 49.02535], [2.54523, 49.02239], [2.54124, 49.02233], [2.54125, 49.02329], [2.53501, 49.02381], [2.5352, 49.02041], [2.5345, 49.01858], [2.53724, 49.01839], [2.53893, 49.01276], [2.54077, 49.01163], [2.54514, 49.01181], [2.54523, 49.01454], [2.54905, 49.01472], [2.54992, 49.01225], [2.55328, 49.01184], [2.55306, 49.00982], [2.55309, 49.00677], [2.54882, 49.00665], [2.54777, 49.00487], [2.54429, 49.0047], [2.54406, 49.00559], [2.53565, 49.00528], [2.5355, 49.00656], [2.53224, 49.00522], [2.53061, 49.00189], [2.52787, 49.00028], [2.52437, 48.99625], [2.52292, 48.99193], [2.52053, 48.99207], [2.51882, 48.99076], [2.51894, 48.98774], [2.51689, 48.98762], [2.51702, 48.98618], [2.51265, 48.98587], [2.51477, 48.98226], [2.51051, 48.98067], [2.50672, 48.97989], [2.50488, 48.9788], [2.5037, 48.97947], [2.50188, 48.97854], [2.5004, 48.9777], [2.50215, 48.97657], [2.50052, 48.97529], [2.49585, 48.97501], [2.49809, 48.97395], [2.49601, 48.97272], [2.49274, 48.97453], [2.48829, 48.97116], [2.49013, 48.97016], [2.48683, 48.96729], [2.48075, 48.96982], [2.47781, 48.96671], [2.47502, 48.96776], [2.46943, 48.96305], [2.46733, 48.96433], [2.46332, 48.95999], [2.46086, 48.95846], [2.45949, 48.95505], [2.45601, 48.95577], [2.45756, 48.95988], [2.45118, 48.96262], [2.45159, 48.96338], [2.44778, 48.96518], [2.4464, 48.96766], [2.446, 48.97017], [2.44416, 48.97211], [2.43754, 48.97356], [2.44075, 48.97701], [2.43672, 48.97796], [2.43229, 48.97976], [2.43063, 48.98283], [2.4272, 48.98536], [2.42585, 48.98693], [2.42311, 48.99251]]]}}, {"type": "Feature", "properties": {"code_circonscription": "10", "nom": "10e circonscription du Val-d'Oise", "nb_communes": 9, "inscrits_2022_t1": 76520}, "geometry": {"type": "Polygon", "coordinates": [[[2.01209, 49.00474], [2.00763, 49.00824], [2.00489, 49.01007], [1.99188, 49.02101], [1.98554, 49.01969], [1.97829, 49.01894], [1.97406, 49.01943], [1.97213, 49.02059], [1.96684, 49.02273], [1.96423, 49.02555], [1.96137, 49.02325], [1.95708, 49.0218], [1.95495, 49.02453], [1.95446, 49.02579], [1.95828, 49.02679], [1.9601, 49.02949], [1.96048, 49.03377], [1.96095, 49.0348], [1.97393, 49.03463], [1.97594, 49.03431], [1.97702, 49.03567], [1.98152, 49.0355], [1.98364, 49.03456], [1.98513, 49.03924], [1.98436, 49.03988], [1.98605, 49.04383], [1.98772, 49.05027], [1.99158, 49.05477], [1.99434, 49.06071], [1.99277, 49.06126], [1.99474, 49.06342], [1.99887, 49.06757], [2.00534, 49.06507], [2.00895, 49.0658], [2.01067, 49.06563], [2.01366, 49.0695], [2.01282, 49.07044], [2.01308, 49.07422], [2.01504, 49.07746], [2.01586, 49.07738], [2.01658, 49.08143], [2.02018, 49.08817], [2.01962, 49.0892], [2.02494, 49.09278], [2.02437, 49.09363], [2.028, 49.09602], [2.02689, 49.09651], [2.02866, 49.09836], [2.03037, 49.09805], [2.03276, 49.09909], [2.03316, 49.10134], [2.03948, 49.10005], [2.03955, 49.09928], [2.04366, 49.0975], [2.04299, 49.09593], [2.04135, 49.09494], [2.04608, 49.09328], [2.04582, 49.09162], [2.04712, 49.0913], [2.04544, 49.08635], [2.04388, 49.0832], [2.04559, 49.08298], [2.0467, 49.08366], [2.0547, 49.08484], [2.0618, 49.08626], [2.06372, 49.08632], [2.06723, 49.08376], [2.073, 49.07878], [2.07838, 49.08487], [2.08414, 49.0842], [2.08633, 49.08177], [2.08642, 49.07984], [2.08567, 49.07813], [2.08691, 49.0771], [2.08678, 49.07431], [2.09041, 49.07221], [2.09453, 49.07064], [2.09543, 49.06978], [2.09024, 49.06555], [2.08542, 49.06051], [2.08378, 49.05978], [2.08187, 49.05776], [2.08146, 49.05635], [2.078, 49.05482], [2.07642, 49.05347], [2.07852, 49.0521], [2.07664, 49.05028], [2.07488, 49.04758], [2.07222, 49.04716], [2.07511, 49.04502], [2.08058, 49.04157], [2.08732, 49.0383], [2.08295, 49.03473], [2.08534, 49.0333], [2.08418, 49.0324], [2.08455, 49.02907], [2.08962, 49.0285], [2.09112, 49.02733], [2.08964, 49.02432], [2.09066, 49.02397], [2.08847, 49.021], [2.0855, 49.01976], [2.08087, 49.019], [2.0766, 49.01926], [2.07546, 49.018], [2.07298, 49.01839], [2.06654, 49.02134], [2.06097, 49.02546], [2.05914, 49.02474], [2.05777, 49.02279], [2.05615, 49.02319], [2.05011, 49.02669], [2.04982, 49.02878], [2.03823, 49.03373], [2.0366, 49.03188], [2.03634, 49.03031], [2.04059, 49.02568], [2.04288, 49.02281], [2.0448, 49.02174], [2.0492, 49.01816], [2.0568, 49.01371], [2.06443, 49.00821], [2.05918, 49.00618], [2.05514, 49.00545], [2.0503, 49.00354], [2.0488, 49.00232], [2.0426, 49.00055], [2.04144, 49.00132], [2.03117, 49.00169], [2.0283, 49.00146], [2.02654, 49.00078], [2.02361, 48.9979], [2.02204, 48.99862], [2.01299, 49.00156], [2.01209, 49.00474]]]}}]}